NORAD_CAT_ID,OBJECT_NAME,OBJECT_TYPE,EPOCH,MEAN_MOTION,ECCENTRICITY,INCLINATION,RA_OF_ASC_NODE,ARG_OF_PERICENTER,MEAN_ANOMALY,BSTAR,MEAN_MOTION_DOT,MEAN_MOTION_DDOT,TLE_LINE0,TLE_LINE1,TLE_LINE2,SEMIMAJOR_AXIS,PERIOD,APOGEE,PERIGEE,DECAYED
51778.0,STARLINK-3615,PAYLOAD,2024-02-20 11:37:24,15.08845025,0.0001401,53.2149,87.8194,84.3514,275.7638,0.0014263,0.00022488,0.0,0 STARLINK-3615,1 51778U 22017L   24051.48430588  .00022488  00000-0  14263-2 0  9994,2 51778  53.2149  87.8194 0001401  84.3514 275.7638 15.08845025111258,6917.865,95.437,540.699,538.761,0.0
51778.0,STARLINK-3615,PAYLOAD,2024-02-20 19:34:19,15.08845151,0.0001469,53.216,86.3304,84.1062,276.0097,0.00082361,0.00012846,0.0,0 STARLINK-3615,1 51778U 22017L   24051.81550585  .00012846  00000-0  82361-3 0  9993,2 51778  53.2160  86.3304 0001469  84.1062 276.0097 15.08845151111307,6917.865,95.437,540.746,538.713,0.0
51778.0,STARLINK-3615,PAYLOAD,2024-02-21 08:17:24,15.088499,0.0001366,53.2149,83.9536,85.1299,274.9849,0.00058075,8.969e-05,0.0,0 STARLINK-3615,1 51778U 22017L   24052.34542404  .00008969  00000-0  58075-3 0  9999,2 51778  53.2149  83.9536 0001366  85.1299 274.9849 15.08849900109735,6917.85,95.437,540.66,538.77,0.0
51778.0,STARLINK-3615,PAYLOAD,2024-02-21 19:25:06,15.08839177,0.0001443,53.2164,81.8697,97.1896,262.926,0.00016149,2.283e-05,0.0,0 STARLINK-3615,1 51778U 22017L   24052.80910539  .00002283  00000-0  16149-3 0  9997,2 51778  53.2164  81.8697 0001443  97.1896 262.9260 15.08839177111450,6917.883,95.438,540.746,538.75,0.0
51778.0,STARLINK-3615,PAYLOAD,2024-02-22 08:08:11,15.0884524,0.000167,53.2162,79.4905,92.9721,267.1463,0.000249,3.678e-05,0.0,0 STARLINK-3615,1 51778U 22017L   24053.33902603  .00003678  00000-0  24900-3 0  9992,2 51778  53.2162  79.4905 0001670  92.9721 267.1463 15.08845240109889,6917.864,95.437,540.885,538.574,0.0
51778.0,STARLINK-3615,PAYLOAD,2024-02-23 11:09:44,15.08851321,0.0001514,53.2158,74.4356,92.0322,268.0844,0.00024525,3.619e-05,0.0,0 STARLINK-3615,1 51778U 22017L   24054.46510228  .00003619  00000-0  24525-3 0  9993,2 51778  53.2158  74.4356 0001514  92.0322 268.0844 15.08851321111708,6917.846,95.437,540.758,538.663,0.0
51778.0,STARLINK-3615,PAYLOAD,2024-02-24 04:38:59,15.08840301,0.0001321,53.2159,71.165,89.9461,270.1682,0.00012164,1.649e-05,0.0,0 STARLINK-3615,1 51778U 22017L   24055.19374780  .00001649  00000-0  12164-3 0  9992,2 51778  53.2159  71.1650 0001321  89.9461 270.1682 15.08840301111817,6917.879,95.438,540.658,538.831,0.0
51778.0,STARLINK-3615,PAYLOAD,2024-02-24 07:49:46,15.08843278,0.0001391,53.2157,70.5702,95.359,264.756,0.00017858,2.556e-05,0.0,0 STARLINK-3615,1 51778U 22017L   24055.32622708  .00002556  00000-0  17858-3 0  9996,2 51778  53.2157  70.5702 0001391  95.3590 264.7560 15.08843278110186,6917.87,95.437,540.698,538.773,0.0
51778.0,STARLINK-3615,PAYLOAD,2024-02-24 17:22:04,15.088432,0.0001364,53.2159,68.7856,95.0689,265.0459,0.00018715,2.692e-05,0.0,0 STARLINK-3615,1 51778U 22017L   24055.72366713  .00002692  00000-0  18715-3 0  9995,2 51778  53.2159  68.7856 0001364  95.0689 265.0459 15.08843200110246,6917.871,95.437,540.679,538.792,0.0
51778.0,STARLINK-3615,PAYLOAD,2024-02-25 07:40:33,15.0884387,0.000151,53.2164,66.1121,100.1599,259.9563,0.000163,2.307e-05,0.0,0 STARLINK-3615,1 51778U 22017L   24056.31982800  .00002307  00000-0  16300-3 0  9993,2 51778  53.2164  66.1121 0001510 100.1599 259.9563 15.08843870111983,6917.869,95.437,540.778,538.689,0.0
51778.0,STARLINK-3615,PAYLOAD,2024-02-25 17:12:51,15.08844025,0.0001523,53.2164,64.3284,101.9516,258.1647,0.00018867,2.716e-05,0.0,0 STARLINK-3615,1 51778U 22017L   24056.71726843  .00002716  00000-0  18867-3 0  9994,2 51778  53.2164  64.3284 0001523 101.9516 258.1647 15.08844025110396,6917.868,95.437,540.787,538.679,0.0
51778.0,STARLINK-3615,PAYLOAD,2024-02-26 05:55:57,15.0884312,0.0001589,53.2167,61.9497,105.2986,254.8182,0.00019226,2.773e-05,0.0,0 STARLINK-3615,1 51778U 22017L   24057.24718901  .00002773  00000-0  19226-3 0  9992,2 51778  53.2167  61.9497 0001589 105.2986 254.8182 15.08843120112123,6917.871,95.437,540.835,538.637,0.0
51778.0,STARLINK-3615,PAYLOAD,2024-02-27 04:11:21,15.0883741,0.0001602,53.217,57.7867,104.9791,255.1379,3.5844e-05,2.82e-06,0.0,0 STARLINK-3615,1 51778U 22017L   24058.17455230  .00000282  00000-0  35844-4 0  9996,2 51778  53.2170  57.7867 0001602 104.9791 255.1379 15.08837410112269,6917.888,95.438,540.862,538.645,0.0
51778.0,STARLINK-3615,PAYLOAD,2024-02-27 08:57:30,15.08840047,0.0001479,53.2163,56.8919,91.0617,269.0545,0.00011131,1.484e-05,0.0,0 STARLINK-3615,1 51778U 22017L   24058.37327220  .00001484  00000-0  11131-3 0  9992,2 51778  53.2163  56.8919 0001479  91.0617 269.0545 15.08840047110643,6917.88,95.438,540.768,538.722,0.0
51778.0,STARLINK-3615,PAYLOAD,2024-02-28 07:12:54,15.08842764,0.0001618,53.2166,52.7305,105.8302,254.2869,0.00010472,1.379e-05,0.0,0 STARLINK-3615,1 51778U 22017L   24059.30063117  .00001379  00000-0  10472-3 0  9998,2 51778  53.2166  52.7305 0001618 105.8302 254.2869 15.08842764112432,6917.872,95.437,540.856,538.618,0.0
51778.0,STARLINK-3615,PAYLOAD,2024-02-28 16:45:13,15.0883756,0.0001559,53.2175,50.9439,94.7728,265.3442,8.1217e-05,1.005e-05,0.0,0 STARLINK-3615,1 51778U 22017L   24059.69807566  .00001005  00000-0  81217-4 0  9996,2 51778  53.2175  50.9439 0001559  94.7728 265.3442 15.08837560112496,6917.888,95.438,540.831,538.674,0.0
51778.0,STARLINK-3615,PAYLOAD,2024-02-28 23:06:46,15.08836758,0.0001555,53.2181,49.7553,95.8524,264.2646,4.5726e-05,4.4e-06,0.0,0 STARLINK-3615,1 51778U 22017L   24059.96303955  .00000440  00000-0  45726-4 0  9996,2 51778  53.2181  49.7553 0001555  95.8524 264.2646 15.08836758110881,6917.89,95.438,540.831,538.68,0.0
51778.0,STARLINK-3615,PAYLOAD,2024-02-29 08:39:04,15.08843289,0.0001502,53.2173,47.9694,103.4829,256.633,7.2302e-05,8.63e-06,0.0,0 STARLINK-3615,1 51778U 22017L   24060.36047424  .00000863  00000-0  72302-4 0  9997,2 51778  53.2173  47.9694 0001502 103.4829 256.6330 15.08843289110943,6917.87,95.437,540.774,538.696,0.0
51778.0,STARLINK-3615,PAYLOAD,2024-02-29 16:36:00,15.08839754,0.0001455,53.2159,46.4824,104.5539,255.5614,1.7197e-05,-1.4e-07,0.0,0 STARLINK-3615,1 51778U 22017L   24060.69167733 -.00000014  00000-0  17197-4 0  9999,2 51778  53.2159  46.4824 0001455 104.5539 255.5614 15.08839754110993,6917.881,95.438,540.753,538.74,0.0
51778.0,STARLINK-3615,PAYLOAD,2024-03-01 03:43:42,15.08844882,0.0001579,53.2159,44.4005,114.6317,245.484,5.0338e-05,5.13e-06,0.0,0 STARLINK-3615,1 51778U 22017L   24061.15535412  .00000513  00000-0  50338-4 0  9991,2 51778  53.2159  44.4005 0001579 114.6317 245.4840 15.08844882112714,6917.865,95.437,540.823,538.638,0.0
51778.0,STARLINK-3615,PAYLOAD,2024-03-01 08:29:51,15.08848193,0.0001443,53.2161,43.5087,103.8534,256.2619,6.882e-05,8.08e-06,0.0,0 STARLINK-3615,1 51778U 22017L   24061.35407186  .00000808  00000-0  68820-4 0  9991,2 51778  53.2161  43.5087 0001443 103.8534 256.2619 15.08848193111091,6917.855,95.437,540.719,538.722,0.0
51778.0,STARLINK-3615,PAYLOAD,2024-03-02 05:09:52,15.08848906,0.0001542,53.217,39.6415,105.4901,254.6262,0.00010885,1.445e-05,0.0,0 STARLINK-3615,1 51778U 22017L   24062.21519035  .00001445  00000-0  10885-3 0  9999,2 51778  53.2170  39.6415 0001542 105.4901 254.6262 15.08848906112873,6917.853,95.437,540.785,538.651,0.0
51778.0,STARLINK-3615,PAYLOAD,2024-03-03 05:00:40,15.08841866,0.0001409,53.2172,35.1819,101.4745,258.6405,4.5976e-05,4.44e-06,0.0,0 STARLINK-3615,1 51778U 22017L   24063.20879826  .00000444  00000-0  45976-4 0  9994,2 51778  53.2172  35.1819 0001409 101.4745 258.6405 15.08841866113027,6917.875,95.437,540.714,538.765,0.0
51778.0,STARLINK-3615,PAYLOAD,2024-03-03 08:11:26,15.088425,0.0001404,53.2172,34.5871,101.3558,258.7592,5.1285e-05,5.28e-06,0.0,0 STARLINK-3615,1 51778U 22017L   24063.34127774  .00000528  00000-0  51285-4 0  9990,2 51778  53.2172  34.5871 0001404 101.3558 258.7592 15.08842500111396,6917.873,95.437,540.709,538.766,0.0
51778.0,STARLINK-3615,PAYLOAD,2024-03-04 06:26:49,15.08850829,0.0001653,53.2187,30.4277,108.1694,251.9479,0.00015128,2.121e-05,0.0,0 STARLINK-3615,1 51778U 22017L   24064.26863076  .00002121  00000-0  15128-3 0  9990,2 51778  53.2187  30.4277 0001653 108.1694 251.9479 15.08850829113180,6917.847,95.437,540.856,538.569,0.0
51778.0,STARLINK-3615,PAYLOAD,2024-03-04 14:23:45,15.08843033,0.0001792,53.2177,28.9379,74.2204,285.8986,6.2758e-05,7.11e-06,0.0,0 STARLINK-3615,1 51778U 22017L   24064.59983611  .00000711  00000-0  62758-4 0  9999,2 51778  53.2177  28.9379 0001792  74.2204 285.8986 15.08843033113232,6917.871,95.437,540.976,538.496,0.0
51778.0,STARLINK-3615,PAYLOAD,2024-03-05 03:06:51,15.08825277,0.0001458,53.2171,26.5584,86.911,273.2048,-0.0001338,-2.416e-05,0.0,0 STARLINK-3615,1 51778U 22017L   24065.12976793 -.00002416  00000-0 -13380-3 0  9994,2 51778  53.2171  26.5584 0001458  86.9110 273.2048 15.08825277113312,6917.925,95.438,540.799,538.782,0.0
51778.0,STARLINK-3615,PAYLOAD,2024-03-05 07:53:01,15.08827847,0.000162,53.2189,25.6666,88.3015,271.8162,0.00015223,2.135e-05,0.0,0 STARLINK-3615,1 51778U 22017L   24065.32848897  .00002135  00000-0  15223-3 0  9993,2 51778  53.2189  25.6666 0001620  88.3015 271.8162 15.08827847111698,6917.918,95.438,540.903,538.662,0.0
51778.0,STARLINK-3615,PAYLOAD,2024-03-06 02:57:38,15.08841532,0.0001623,53.2182,22.099,87.2142,272.9036,0.00013076,1.794e-05,0.0,0 STARLINK-3615,1 51778U 22017L   24066.12336531  .00001794  00000-0  13076-3 0  9993,2 51778  53.2182  22.0990 0001623  87.2142 272.9036 15.08841532113460,6917.876,95.437,540.863,538.618,0.0
51778.0,STARLINK-3615,PAYLOAD,2024-03-06 04:33:01,15.08841182,0.0001473,53.2174,21.8012,84.8299,275.2861,0.00025576,3.785e-05,0.0,0 STARLINK-3615,1 51778U 22017L   24066.18960582  .00003785  00000-0  25576-3 0  9998,2 51778  53.2174  21.8012 0001473  84.8299 275.2861 15.08841182111823,6917.877,95.437,540.761,538.723,0.0
